FENGYUN 1C DEB          
1 31678U 99025CCL 17345.81238608  .00000748  00000-0  17719-3 0  9993
2 31678  98.9647 329.2302 0347933 312.9625 164.7910 14.26616982550595
